IRIDIUM 7 [-]           
1 24793U 97020B   23351.68962005  .00000391  00000+0  13059-3 0  9996
2 24793  86.3965  46.2306 0002384  96.8172 263.3295 14.35009863393357
IRIDIUM 5 [-]           
1 24795U 97020D   23351.94323586  .00006505  00000+0  65033-3 0  9994
2 24795  86.3934 334.0262 0123863 289.2836  69.5025 14.85666541403991
IRIDIUM 4 [-]           
1 24796U 97020E   23352.50981989  .00000396  00000+0  12970-3 0  9999
2 24796  86.3962  43.1282 0002141  97.4674 262.6766 14.35918965394023
IRIDIUM 914 [-]         
1 24836U 97030A   23352.12147749  .00000575  00000+0  17730-3 0  9999
2 24836  86.3939  53.4935 0001682 149.6185 210.5111 14.39747936390481
IRIDIUM 16 [-]          
1 24841U 97030F   23351.76054748  .00000540  00000+0  17348-3 0  9997
2 24841  86.4036  75.1617 0004095  79.9281 280.2379 14.37632897388324
IRIDIUM 911 [-]         
1 24842U 97030G   23351.73351371  .00000733  00000+0  19922-3 0  9991
2 24842  86.4462  74.4518 0016315 118.4995 241.7853 14.46191477395926
IRIDIUM 17 [-]          
1 24870U 97034B   23352.38062323  .00000639  00000+0  21017-3 0  9997
2 24870  86.3959 104.5608 0002645  55.6002 304.5445 14.36725682385041
IRIDIUM 920 [-]         
1 24871U 97034C   23351.81673873  .00000592  00000+0  17998-3 0  9994
2 24871  86.3975  85.2958 0013714  88.2192 272.0578 14.40448944387758
